{
  "type": "FeatureCollection",
  "features": [
    {
      "type": "Feature",
      "properties": {
        "norad_id": 35705,
        "name": "COSMOS 2251 DEB",
        "group": "cosmos-2251-debris",
        "lat": 73.89629053169867,
        "lon": -137.41982746363473,
        "alt_km": 624.1855667559621,
        "timestamp": "2025-12-07T20:38:14.459973+00:00",
        "meta_object_name": "COSMOS 2251 DEB",
        "meta_object_id": "1993-036AQA",
        "meta_epoch": "2025-12-03T05:18:59.084352",
        "meta_mean_motion": 14.71707631,
        "meta_eccentricity": 0.0034156,
        "meta_inclination": 74.2742,
        "meta_ra_of_asc_node": 154.0557,
        "meta_arg_of_pericenter": 110.0272,
        "meta_mean_anomaly": 250.4584,
        "meta_ephemeris_type": 0,
        "meta_classification_type": "U",
        "meta_norad_cat_id": 35705,
        "meta_element_set_no": 999,
        "meta_rev_at_epoch": 85786,
        "meta_bstar": 0.0035867,
        "meta_mean_motion_dot": 0.00022615,
        "meta_mean_motion_ddot": 0,
        "tle_line1": "1 35705U 93036AQA 25337.22151718  .00022615  00000+0  35867-2 0  9994",
        "tle_line2": "2 35705  74.2742 154.0557 0034156 110.0272 250.4584 14.71707631857866"
      },
      "geometry": {
        "type": "Point",
        "coordinates": [
          -137.41982746363473,
          73.89629053169867
        ]
      }
    },
    {
      "type": "Feature",
      "properties": {
        "norad_id": 35706,
        "name": "COSMOS 2251 DEB",
        "group": "cosmos-2251-debris",
        "lat": 44.52794398735947,
        "lon": 87.3869283592708,
        "alt_km": 935.3796355992554,
        "timestamp": "2025-12-07T20:38:14.459982+00:00",
        "meta_object_name": "COSMOS 2251 DEB",
        "meta_object_id": "1993-036AQB",
        "meta_epoch": "2025-12-06T12:46:02.118144",
        "meta_mean_motion": 13.6590255,
        "meta_eccentricity": 0.03413155,
        "meta_inclination": 73.889,
        "meta_ra_of_asc_node": 73.0632,
        "meta_arg_of_pericenter": 124.0409,
        "meta_mean_anomaly": 239.3616,
        "meta_ephemeris_type": 0,
        "meta_classification_type": "U",
        "meta_norad_cat_id": 35706,
        "meta_element_set_no": 999,
        "meta_rev_at_epoch": 61977,
        "meta_bstar": 0.0020488597,
        "meta_mean_motion_dot": 2.489e-05,
        "meta_mean_motion_ddot": 0,
        "tle_line1": "1 35706U 93036AQB 25340.53196896  .00002489  00000+0  20489-2 0  9990",
        "tle_line2": "2 35706  73.8890  73.0632 0341315 124.0409 239.3616 13.65902550619772"
      },
      "geometry": {
        "type": "Point",
        "coordinates": [
          87.3869283592708,
          44.52794398735947
        ]
      }
    },
    {
      "type": "Feature",
      "properties": {
        "norad_id": 35711,
        "name": "COSMOS 2251 DEB",
        "group": "cosmos-2251-debris",
        "lat": -25.031307961400636,
        "lon": 57.501051984553925,
        "alt_km": 721.1757327175346,
        "timestamp": "2025-12-07T20:38:14.459992+00:00",
        "meta_object_name": "COSMOS 2251 DEB",
        "meta_object_id": "1993-036AQG",
        "meta_epoch": "2025-12-04T11:19:14.539584",
        "meta_mean_motion": 14.63763095,
        "meta_eccentricity": 0.0085131,
        "meta_inclination": 74.047,
        "meta_ra_of_asc_node": 236.3228,
        "meta_arg_of_pericenter": 339.3303,
        "meta_mean_anomaly": 20.4427,
        "meta_ephemeris_type": 0,
        "meta_classification_type": "U",
        "meta_norad_cat_id": 35711,
        "meta_element_set_no": 999,
        "meta_rev_at_epoch": 87650,
        "meta_bstar": 0.00064568,
        "meta_mean_motion_dot": 3.517e-05,
        "meta_mean_motion_ddot": 0,
        "tle_line1": "1 35711U 93036AQG 25338.47169606  .00003517  00000+0  64568-3 0  9995",
        "tle_line2": "2 35711  74.0470 236.3228 0085131 339.3303  20.4427 14.63763095876508"
      },
      "geometry": {
        "type": "Point",
        "coordinates": [
          57.501051984553925,
          -25.031307961400636
        ]
      }
    },
    {
      "type": "Feature",
      "properties": {
        "norad_id": 35716,
        "name": "COSMOS 2251 DEB",
        "group": "cosmos-2251-debris",
        "lat": -9.22695424133404,
        "lon": -159.13188079350374,
        "alt_km": 660.6587738473745,
        "timestamp": "2025-12-07T20:38:14.460002+00:00",
        "meta_object_name": "COSMOS 2251 DEB",
        "meta_object_id": "1993-036AQM",
        "meta_epoch": "2025-12-06T21:45:23.385888",
        "meta_mean_motion": 14.60076352,
        "meta_eccentricity": 0.00885119,
        "meta_inclination": 73.9929,
        "meta_ra_of_asc_node": 205.3647,
        "meta_arg_of_pericenter": 47.8534,
        "meta_mean_anomaly": 334.3728,
        "meta_ephemeris_type": 0,
        "meta_classification_type": "U",
        "meta_norad_cat_id": 35716,
        "meta_element_set_no": 999,
        "meta_rev_at_epoch": 87542,
        "meta_bstar": 0.00021173937,
        "meta_mean_motion_dot": 1.043e-05,
        "meta_mean_motion_ddot": 0,
        "tle_line1": "1 35716U 93036AQM 25340.90652067  .00001043  00000+0  21174-3 0  9997",
        "tle_line2": "2 35716  73.9929 205.3647 0088511  47.8534 334.3728 14.60076352875424"
      },
      "geometry": {
        "type": "Point",
        "coordinates": [
          -159.13188079350374,
          -9.22695424133404
        ]
      }
    },
    {
      "type": "Feature",
      "properties": {
        "norad_id": 35717,
        "name": "COSMOS 2251 DEB",
        "group": "cosmos-2251-debris",
        "lat": 37.390890537843624,
        "lon": 33.89138332571776,
        "alt_km": 727.5514781068568,
        "timestamp": "2025-12-07T20:38:14.460013+00:00",
        "meta_object_name": "COSMOS 2251 DEB",
        "meta_object_id": "1993-036AQN",
        "meta_epoch": "2025-12-06T10:36:33.500160",
        "meta_mean_motion": 14.38423787,
        "meta_eccentricity": 0.00767712,
        "meta_inclination": 74.1605,
        "meta_ra_of_asc_node": 229.016,
        "meta_arg_of_pericenter": 90.4619,
        "meta_mean_anomaly": 270.5333,
        "meta_ephemeris_type": 0,
        "meta_classification_type": "U",
        "meta_norad_cat_id": 35717,
        "meta_element_set_no": 999,
        "meta_rev_at_epoch": 74009,
        "meta_bstar": 0.0021950954,
        "meta_mean_motion_dot": 6.912e-05,
        "meta_mean_motion_ddot": 0,
        "tle_line1": "1 35717U 93036AQN 25340.44205440  .00006912  00000+0  21951-2 0  9998",
        "tle_line2": "2 35717  74.1605 229.0160 0076771  90.4619 270.5333 14.38423787740095"
      },
      "geometry": {
        "type": "Point",
        "coordinates": [
          33.89138332571776,
          37.390890537843624
        ]
      }
    },
    {
      "type": "Feature",
      "properties": {
        "norad_id": 35718,
        "name": "COSMOS 2251 DEB",
        "group": "cosmos-2251-debris",
        "lat": 67.93795934242509,
        "lon": -175.63388158023275,
        "alt_km": 662.1130651831554,
        "timestamp": "2025-12-07T20:38:14.460023+00:00",
        "meta_object_name": "COSMOS 2251 DEB",
        "meta_object_id": "1993-036AQP",
        "meta_epoch": "2025-12-07T03:56:54.575520",
        "meta_mean_motion": 14.6849943,
        "meta_eccentricity": 0.00115176,
        "meta_inclination": 74.0311,
        "meta_ra_of_asc_node": 140.7573,
        "meta_arg_of_pericenter": 190.0209,
        "meta_mean_anomaly": 170.0733,
        "meta_ephemeris_type": 0,
        "meta_classification_type": "U",
        "meta_norad_cat_id": 35718,
        "meta_element_set_no": 999,
        "meta_rev_at_epoch": 65758,
        "meta_bstar": 0.0025274033,
        "meta_mean_motion_dot": 0.00014666,
        "meta_mean_motion_ddot": 0,
        "tle_line1": "1 35718U 93036AQP 25341.16452055  .00014666  00000+0  25274-2 0  9992",
        "tle_line2": "2 35718  74.0311 140.7573 0011517 190.0209 170.0733 14.68499430657585"
      },
      "geometry": {
        "type": "Point",
        "coordinates": [
          -175.63388158023275,
          67.93795934242509
        ]
      }
    },
    {
      "type": "Feature",
      "properties": {
        "norad_id": 35721,
        "name": "COSMOS 2251 DEB",
        "group": "cosmos-2251-debris",
        "lat": -22.401105922298157,
        "lon": 179.9153533571539,
        "alt_km": 677.8985137081099,
        "timestamp": "2025-12-07T20:38:14.460033+00:00",
        "meta_object_name": "COSMOS 2251 DEB",
        "meta_object_id": "1993-036AQS",
        "meta_epoch": "2025-11-29T21:54:16.243200",
        "meta_mean_motion": 14.34192363,
        "meta_eccentricity": 0.01464404,
        "meta_inclination": 73.9503,
        "meta_ra_of_asc_node": 201.3539,
        "meta_arg_of_pericenter": 350.3358,
        "meta_mean_anomaly": 9.498,
        "meta_ephemeris_type": 0,
        "meta_classification_type": "U",
        "meta_norad_cat_id": 35721,
        "meta_element_set_no": 999,
        "meta_rev_at_epoch": 57605,
        "meta_bstar": 0.0014885779,
        "meta_mean_motion_dot": 4.68e-05,
        "meta_mean_motion_ddot": 0,
        "tle_line1": "1 35721U 93036AQS 25333.91268800  .00004680  00000+0  14886-2 0  9995",
        "tle_line2": "2 35721  73.9503 201.3539 0146440 350.3358   9.4980 14.34192363576055"
      },
      "geometry": {
        "type": "Point",
        "coordinates": [
          179.9153533571539,
          -22.401105922298157
        ]
      }
    }
  ]
}